{
  "links" : {
    "next" : "https://api.nasa.gov/neo/rest/v1/feed?start_date=2009-02-09&end_date=2009-02-09&detailed=true&api_key=t0TVs3DtDT2H8Oy2Zy8m2eVrNsAVKAexjcZXUckd",
    "prev" : "https://api.nasa.gov/neo/rest/v1/feed?start_date=2009-02-07&end_date=2009-02-07&detailed=true&api_key=t0TVs3DtDT2H8Oy2Zy8m2eVrNsAVKAexjcZXUckd",
    "self" : "https://api.nasa.gov/neo/rest/v1/feed?start_date=2009-02-08&end_date=2009-02-08&detailed=true&api_key=t0TVs3DtDT2H8Oy2Zy8m2eVrNsAVKAexjcZXUckd"
  },
  "element_count" : 8,
  "near_earth_objects" : {
    "2009-02-08" : [ {
      "links" : {
        "self" : "https://api.nasa.gov/neo/rest/v1/neo/3648767?api_key=t0TVs3DtDT2H8Oy2Zy8m2eVrNsAVKAexjcZXUckd"
      },
      "neo_reference_id" : "3648767",
      "name" : "(2013 TH4)",
      "nasa_jpl_url" : "http://ssd.jpl.nasa.gov/sbdb.cgi?sstr=3648767",
      "absolute_magnitude_h" : 23.2,
      "estimated_diameter" : {
        "kilometers" : {
          "estimated_diameter_min" : 0.0608912622,
          "estimated_diameter_max" : 0.1361570015
        },
        "meters" : {
          "estimated_diameter_min" : 60.8912622106,
          "estimated_diameter_max" : 136.1570015386
        },
        "miles" : {
          "estimated_diameter_min" : 0.0378360645,
          "estimated_diameter_max" : 0.0846040122
        },
        "feet" : {
          "estimated_diameter_min" : 199.7744887109,
          "estimated_diameter_max" : 446.7093369279
        }
      },
      "is_potentially_hazardous_asteroid" : false,
      "close_approach_data" : [ {
        "close_approach_date" : "2009-02-08",
        "epoch_date_close_approach" : 1234080000000,
        "relative_velocity" : {
          "kilometers_per_second" : "22.053007574",
          "kilometers_per_hour" : "79390.8272664666",
          "miles_per_hour" : "49330.372642322"
        },
        "miss_distance" : {
          "astronomical" : "0.4928205669",
          "lunar" : "191.7071990967",
          "kilometers" : "73724904",
          "miles" : "45810532"
        },
        "orbiting_body" : "Earth"
      } ],
      "orbital_data" : {
        "orbit_id" : "7",
        "orbit_determination_date" : "2017-04-06 08:44:24",
        "orbit_uncertainty" : "7",
        "minimum_orbit_intersection" : ".256883",
        "jupiter_tisserand_invariant" : "6.515",
        "epoch_osculation" : "2458000.5",
        "eccentricity" : ".4234684061575051",
        "semi_major_axis" : ".8888007456621697",
        "inclination" : "28.014450305686",
        "ascending_node_longitude" : "188.4797016923757",
        "orbital_period" : "306.0589206271064",
        "perihelion_distance" : ".5124217105050086",
        "perihelion_argument" : "2.402182748282588",
        "aphelion_distance" : "1.265179780819331",
        "perihelion_time" : "2457949.527276179784",
        "mean_anomaly" : "59.95636571441412",
        "mean_motion" : "1.176244101176237",
        "equinox" : "J2000"
      }
    }, {
      "links" : {
        "self" : "https://api.nasa.gov/neo/rest/v1/neo/3772993?api_key=t0TVs3DtDT2H8Oy2Zy8m2eVrNsAVKAexjcZXUckd"
      },
      "neo_reference_id" : "3772993",
      "name" : "(2017 FY101)",
      "nasa_jpl_url" : "http://ssd.jpl.nasa.gov/sbdb.cgi?sstr=3772993",
      "absolute_magnitude_h" : 27.197,
      "estimated_diameter" : {
        "kilometers" : {
          "estimated_diameter_min" : 0.0096639567,
          "estimated_diameter_max" : 0.0216092642
        },
        "meters" : {
          "estimated_diameter_min" : 9.6639567269,
          "estimated_diameter_max" : 21.609264173
        },
        "miles" : {
          "estimated_diameter_min" : 0.0060049025,
          "estimated_diameter_max" : 0.0134273701
        },
        "feet" : {
          "estimated_diameter_min" : 31.705895788,
          "estimated_diameter_max" : 70.8965382695
        }
      },
      "is_potentially_hazardous_asteroid" : false,
      "close_approach_data" : [ {
        "close_approach_date" : "2009-02-08",
        "epoch_date_close_approach" : 1234080000000,
        "relative_velocity" : {
          "kilometers_per_second" : "9.0250907091",
          "kilometers_per_hour" : "32490.3265526584",
          "miles_per_hour" : "20188.2254071227"
        },
        "miss_distance" : {
          "astronomical" : "0.3321586821",
          "lunar" : "129.2097320557",
          "kilometers" : "49690232",
          "miles" : "30876078"
        },
        "orbiting_body" : "Earth"
      } ],
      "orbital_data" : {
        "orbit_id" : "3",
        "orbit_determination_date" : "2017-04-06 08:19:01",
        "orbit_uncertainty" : "6",
        "minimum_orbit_intersection" : ".00223976",
        "jupiter_tisserand_invariant" : "6.091",
        "epoch_osculation" : "2458000.5",
        "eccentricity" : ".3458404440467126",
        "semi_major_axis" : ".986420173735552",
        "inclination" : "2.500098601413876",
        "ascending_node_longitude" : "6.219294469626103",
        "orbital_period" : "357.8420270713033",
        "perihelion_distance" : ".6452761828342133",
        "perihelion_argument" : "294.9074533476469",
        "aphelion_distance" : "1.327564164636891",
        "perihelion_time" : "2457913.918084464956",
        "mean_anomaly" : "87.10404936982205",
        "mean_motion" : "1.006030518400419",
        "equinox" : "J2000"
      }
    } ]
  }
}